[{"OBJECT_NAME":"STARLINK-34775","OBJECT_ID":"2025-158C","EPOCH":"2026-03-09T14:46:32.585952","MEAN_MOTION":15.05650685,"ECCENTRICITY":0.0002956,"INCLINATION":97.601,"RA_OF_ASC_NODE":293.9965,"ARG_OF_PERICENTER":89.0893,"MEAN_ANOMALY":271.0673,"EPHEMERIS_TYPE":0,"CLASSIFICATION_TYPE":"U","NORAD_CAT_ID":64934,"ELEMENT_SET_NO":999,"REV_AT_EPOCH":3534,"BSTAR":0.00040057,"MEAN_MOTION_DOT":5.724e-5,"MEAN_MOTION_DDOT":0},{"OBJECT_NAME":"UNKNOWN","OBJECT_ID":"","EPOCH":"2026-03-09T06:40:17.770944","MEAN_MOTION":13.93999236,"ECCENTRICITY":0.0496409,"INCLINATION":63.0116,"RA_OF_ASC_NODE":359.5695,"ARG_OF_PERICENTER":301.9459,"MEAN_ANOMALY":53.4224,"EPHEMERIS_TYPE":0,"CLASSIFICATION_TYPE":"U","NORAD_CAT_ID":82205,"ELEMENT_SET_NO":999,"REV_AT_EPOCH":62006,"BSTAR":0.0010476,"MEAN_MOTION_DOT":3.786e-5,"MEAN_MOTION_DDOT":0}]
